STARLINK-35860          
1 66881U 25283D   25362.83334491 -.00015181  00000+0 -26553-3 0  9993
2 66881  53.1598 354.1888 0001527  87.2643 251.4445 15.49296230  5016
STARLINK-35912          
1 66882U 25283E   25362.83334491 -.00105343  00000+0 -19071-2 0  9990
2 66882  53.1595 354.1861 0002035  93.8695 246.6959 15.49373667  5016
STARLINK-35947          
1 66883U 25283F   25362.83334491 -.00106945  00000+0 -19361-2 0  9992
2 66883  53.1598 354.1826 0001932  94.0091 248.4603 15.49380926  5066
STARLINK-36057          
1 66884U 25283G   25362.83334491 -.00108134  00000+0 -19586-2 0  9994
2 66884  53.1597 354.1738 0001741  94.9418 251.3774 15.49373028  5010
STARLINK-35954          
1 66885U 25283H   25362.83334491 -.00105176  00000+0 -19041-2 0  9994
2 66885  53.1596 354.1779 0001816  95.3616 249.0394 15.49372042  5010
STARLINK-35900          
1 66886U 25283J   25362.83334491 -.00074194  00000+0 -13369-2 0  9997
2 66886  53.1597 354.1693 0002011  98.4223 249.8338 15.49342784  5019
STARLINK-35925          
1 66887U 25283K   25362.83334491 -.00070233  00000+0 -12645-2 0  9994
2 66887  53.1597 354.1654 0001954  98.9715 251.2007 15.49341736  5019
STARLINK-35919          
1 66888U 25283L   25362.83334491 -.00115103  00000+0 -20865-2 0  9994
2 66888  53.1595 354.1614 0001829  95.1640 256.8952 15.49382558  5018
STARLINK-35852          
1 66889U 25283M   25362.83334491 -.00030916  00000+0 -54974-3 0  9992
2 66889  53.1595 354.1572 0002043  97.3436 256.6499 15.49319454  5017
STARLINK-35885          
1 66890U 25283N   25362.83334491 -.00073315  00000+0 -13213-2 0  9994
2 66890  53.1595 354.1533 0001878  90.5587 265.3851 15.49333843  5010
STARLINK-35855          
1 66891U 25283P   25362.83334491 -.00035497  00000+0 -63309-3 0  9996
2 66891  53.1595 354.1492 0001431  97.5147 260.3616 15.49307015  5015
STARLINK-35883          
1 66892U 25283Q   25362.83334491 -.00029319  00000+0 -52114-3 0  9995
2 66892  53.1596 354.1448 0001467 100.3738 259.4165 15.49303605  4957
