CCSDS_OMM_VERS = 2.0
CREATION_DATE  = 
ORIGINATOR     = 

OBJECT_NAME    = STARLINK-35860
OBJECT_ID      = 2025-283D
CENTER_NAME    = EARTH
REF_FRAME      = TEME
TIME_SYSTEM    = UTC
MEAN_ELEMENT_THEORY = SGP/SGP4

EPOCH          = 2025-12-28T20:00:01.000224
MEAN_MOTION    = 15.49296230
ECCENTRICITY   = .0001527
INCLINATION    = 53.1598
RA_OF_ASC_NODE = 354.1888
ARG_OF_PERICENTER = 87.2643
MEAN_ANOMALY   = 251.4445

EPHEMERIS_TYPE = 0
CLASSIFICATION_TYPE = U
NORAD_CAT_ID   = 66881
ELEMENT_SET_NO = 999
REV_AT_EPOCH   = 501
BSTAR          = -.26553E-3
MEAN_MOTION_DOT = -.15181E-3
MEAN_MOTION_DDOT = 0

CCSDS_OMM_VERS = 2.0
CREATION_DATE  = 
ORIGINATOR     = 

OBJECT_NAME    = STARLINK-35912
OBJECT_ID      = 2025-283E
CENTER_NAME    = EARTH
REF_FRAME      = TEME
TIME_SYSTEM    = UTC
MEAN_ELEMENT_THEORY = SGP/SGP4

EPOCH          = 2025-12-28T20:00:01.000224
MEAN_MOTION    = 15.49373667
ECCENTRICITY   = .0002035
INCLINATION    = 53.1595
RA_OF_ASC_NODE = 354.1861
ARG_OF_PERICENTER = 93.8695
MEAN_ANOMALY   = 246.6959

EPHEMERIS_TYPE = 0
CLASSIFICATION_TYPE = U
NORAD_CAT_ID   = 66882
ELEMENT_SET_NO = 999
REV_AT_EPOCH   = 501
BSTAR          = -.19071E-2
MEAN_MOTION_DOT = -.105343E-2
MEAN_MOTION_DDOT = 0

CCSDS_OMM_VERS = 2.0
CREATION_DATE  = 
ORIGINATOR     = 

OBJECT_NAME    = STARLINK-35947
OBJECT_ID      = 2025-283F
CENTER_NAME    = EARTH
REF_FRAME      = TEME
TIME_SYSTEM    = UTC
MEAN_ELEMENT_THEORY = SGP/SGP4

EPOCH          = 2025-12-28T20:00:01.000224
MEAN_MOTION    = 15.49380926
ECCENTRICITY   = .0001932
INCLINATION    = 53.1598
RA_OF_ASC_NODE = 354.1826
ARG_OF_PERICENTER = 94.0091
MEAN_ANOMALY   = 248.4603

EPHEMERIS_TYPE = 0
CLASSIFICATION_TYPE = U
NORAD_CAT_ID   = 66883
ELEMENT_SET_NO = 999
REV_AT_EPOCH   = 506
BSTAR          = -.19361E-2
MEAN_MOTION_DOT = -.106945E-2
MEAN_MOTION_DDOT = 0

CCSDS_OMM_VERS = 2.0
CREATION_DATE  = 
ORIGINATOR     = 

OBJECT_NAME    = STARLINK-36057
OBJECT_ID      = 2025-283G
CENTER_NAME    = EARTH
REF_FRAME      = TEME
TIME_SYSTEM    = UTC
MEAN_ELEMENT_THEORY = SGP/SGP4

EPOCH          = 2025-12-28T20:00:01.000224
MEAN_MOTION    = 15.49373028
ECCENTRICITY   = .0001741
INCLINATION    = 53.1597
RA_OF_ASC_NODE = 354.1738
ARG_OF_PERICENTER = 94.9418
MEAN_ANOMALY   = 251.3774

EPHEMERIS_TYPE = 0
CLASSIFICATION_TYPE = U
NORAD_CAT_ID   = 66884
ELEMENT_SET_NO = 999
REV_AT_EPOCH   = 501
BSTAR          = -.19586E-2
MEAN_MOTION_DOT = -.108134E-2
MEAN_MOTION_DDOT = 0

CCSDS_OMM_VERS = 2.0
CREATION_DATE  = 
ORIGINATOR     = 

OBJECT_NAME    = STARLINK-35954
OBJECT_ID      = 2025-283H
CENTER_NAME    = EARTH
REF_FRAME      = TEME
TIME_SYSTEM    = UTC
MEAN_ELEMENT_THEORY = SGP/SGP4

EPOCH          = 2025-12-28T20:00:01.000224
MEAN_MOTION    = 15.49372042
ECCENTRICITY   = .0001816
INCLINATION    = 53.1596
RA_OF_ASC_NODE = 354.1779
ARG_OF_PERICENTER = 95.3616
MEAN_ANOMALY   = 249.0394

EPHEMERIS_TYPE = 0
CLASSIFICATION_TYPE = U
NORAD_CAT_ID   = 66885
ELEMENT_SET_NO = 999
REV_AT_EPOCH   = 501
BSTAR          = -.19041E-2
MEAN_MOTION_DOT = -.105176E-2
MEAN_MOTION_DDOT = 0

CCSDS_OMM_VERS = 2.0
CREATION_DATE  = 
ORIGINATOR     = 

OBJECT_NAME    = STARLINK-35900
OBJECT_ID      = 2025-283J
CENTER_NAME    = EARTH
REF_FRAME      = TEME
TIME_SYSTEM    = UTC
MEAN_ELEMENT_THEORY = SGP/SGP4

EPOCH          = 2025-12-28T20:00:01.000224
MEAN_MOTION    = 15.49342784
ECCENTRICITY   = .0002011
INCLINATION    = 53.1597
RA_OF_ASC_NODE = 354.1693
ARG_OF_PERICENTER = 98.4223
MEAN_ANOMALY   = 249.8338

EPHEMERIS_TYPE = 0
CLASSIFICATION_TYPE = U
NORAD_CAT_ID   = 66886
ELEMENT_SET_NO = 999
REV_AT_EPOCH   = 501
BSTAR          = -.13369E-2
MEAN_MOTION_DOT = -.74194E-3
MEAN_MOTION_DDOT = 0

CCSDS_OMM_VERS = 2.0
CREATION_DATE  = 
ORIGINATOR     = 

OBJECT_NAME    = STARLINK-35925
OBJECT_ID      = 2025-283K
CENTER_NAME    = EARTH
REF_FRAME      = TEME
TIME_SYSTEM    = UTC
MEAN_ELEMENT_THEORY = SGP/SGP4

EPOCH          = 2025-12-28T20:00:01.000224
MEAN_MOTION    = 15.49341736
ECCENTRICITY   = .0001954
INCLINATION    = 53.1597
RA_OF_ASC_NODE = 354.1654
ARG_OF_PERICENTER = 98.9715
MEAN_ANOMALY   = 251.2007

EPHEMERIS_TYPE = 0
CLASSIFICATION_TYPE = U
NORAD_CAT_ID   = 66887
ELEMENT_SET_NO = 999
REV_AT_EPOCH   = 501
BSTAR          = -.12645E-2
MEAN_MOTION_DOT = -.70233E-3
MEAN_MOTION_DDOT = 0

CCSDS_OMM_VERS = 2.0
CREATION_DATE  = 
ORIGINATOR     = 

OBJECT_NAME    = STARLINK-35919
OBJECT_ID      = 2025-283L
CENTER_NAME    = EARTH
REF_FRAME      = TEME
TIME_SYSTEM    = UTC
MEAN_ELEMENT_THEORY = SGP/SGP4

EPOCH          = 2025-12-28T20:00:01.000224
MEAN_MOTION    = 15.49382558
ECCENTRICITY   = .0001829
INCLINATION    = 53.1595
RA_OF_ASC_NODE = 354.1614
ARG_OF_PERICENTER = 95.1640
MEAN_ANOMALY   = 256.8952

EPHEMERIS_TYPE = 0
CLASSIFICATION_TYPE = U
NORAD_CAT_ID   = 66888
ELEMENT_SET_NO = 999
REV_AT_EPOCH   = 501
BSTAR          = -.20865E-2
MEAN_MOTION_DOT = -.115103E-2
MEAN_MOTION_DDOT = 0

CCSDS_OMM_VERS = 2.0
CREATION_DATE  = 
ORIGINATOR     = 

OBJECT_NAME    = STARLINK-35852
OBJECT_ID      = 2025-283M
CENTER_NAME    = EARTH
REF_FRAME      = TEME
TIME_SYSTEM    = UTC
MEAN_ELEMENT_THEORY = SGP/SGP4

EPOCH          = 2025-12-28T20:00:01.000224
MEAN_MOTION    = 15.49319454
ECCENTRICITY   = .0002043
INCLINATION    = 53.1595
RA_OF_ASC_NODE = 354.1572
ARG_OF_PERICENTER = 97.3436
MEAN_ANOMALY   = 256.6499

EPHEMERIS_TYPE = 0
CLASSIFICATION_TYPE = U
NORAD_CAT_ID   = 66889
ELEMENT_SET_NO = 999
REV_AT_EPOCH   = 501
BSTAR          = -.54974E-3
MEAN_MOTION_DOT = -.30916E-3
MEAN_MOTION_DDOT = 0

CCSDS_OMM_VERS = 2.0
CREATION_DATE  = 
ORIGINATOR     = 

OBJECT_NAME    = STARLINK-35885
OBJECT_ID      = 2025-283N
CENTER_NAME    = EARTH
REF_FRAME      = TEME
TIME_SYSTEM    = UTC
MEAN_ELEMENT_THEORY = SGP/SGP4

EPOCH          = 2025-12-28T20:00:01.000224
MEAN_MOTION    = 15.49333843
ECCENTRICITY   = .0001878
INCLINATION    = 53.1595
RA_OF_ASC_NODE = 354.1533
ARG_OF_PERICENTER = 90.5587
MEAN_ANOMALY   = 265.3851

EPHEMERIS_TYPE = 0
CLASSIFICATION_TYPE = U
NORAD_CAT_ID   = 66890
ELEMENT_SET_NO = 999
REV_AT_EPOCH   = 501
BSTAR          = -.13213E-2
MEAN_MOTION_DOT = -.73315E-3
MEAN_MOTION_DDOT = 0

CCSDS_OMM_VERS = 2.0
CREATION_DATE  = 
ORIGINATOR     = 

OBJECT_NAME    = STARLINK-35855
OBJECT_ID      = 2025-283P
CENTER_NAME    = EARTH
REF_FRAME      = TEME
TIME_SYSTEM    = UTC
MEAN_ELEMENT_THEORY = SGP/SGP4

EPOCH          = 2025-12-28T20:00:01.000224
MEAN_MOTION    = 15.49307015
ECCENTRICITY   = .0001431
INCLINATION    = 53.1595
RA_OF_ASC_NODE = 354.1492
ARG_OF_PERICENTER = 97.5147
MEAN_ANOMALY   = 260.3616

EPHEMERIS_TYPE = 0
CLASSIFICATION_TYPE = U
NORAD_CAT_ID   = 66891
ELEMENT_SET_NO = 999
REV_AT_EPOCH   = 501
BSTAR          = -.63309E-3
MEAN_MOTION_DOT = -.35497E-3
MEAN_MOTION_DDOT = 0

CCSDS_OMM_VERS = 2.0
CREATION_DATE  = 
ORIGINATOR     = 

OBJECT_NAME    = STARLINK-35883
OBJECT_ID      = 2025-283Q
CENTER_NAME    = EARTH
REF_FRAME      = TEME
TIME_SYSTEM    = UTC
MEAN_ELEMENT_THEORY = SGP/SGP4

EPOCH          = 2025-12-28T20:00:01.000224
MEAN_MOTION    = 15.49303605
ECCENTRICITY   = .0001467
INCLINATION    = 53.1596
RA_OF_ASC_NODE = 354.1448
ARG_OF_PERICENTER = 100.3738
MEAN_ANOMALY   = 259.4165

EPHEMERIS_TYPE = 0
CLASSIFICATION_TYPE = U
NORAD_CAT_ID   = 66892
ELEMENT_SET_NO = 999
REV_AT_EPOCH   = 495
BSTAR          = -.52114E-3
MEAN_MOTION_DOT = -.29319E-3
MEAN_MOTION_DDOT = 0

